[{"OBJECT_NAME":"TANDEM-X","OBJECT_ID":"2010-030A","EPOCH":"2026-03-09T12:47:32.131392","MEAN_MOTION":15.19144937,"ECCENTRICITY":0.0001868,"INCLINATION":97.4478,"RA_OF_ASC_NODE":77.6581,"ARG_OF_PERICENTER":98.3695,"MEAN_ANOMALY":261.7752,"EPHEMERIS_TYPE":0,"CLASSIFICATION_TYPE":"U","NORAD_CAT_ID":36605,"ELEMENT_SET_NO":999,"REV_AT_EPOCH":87151,"BSTAR":7.7445e-5,"MEAN_MOTION_DOT":1.559e-5,"MEAN_MOTION_DDOT":0},{"OBJECT_NAME":"OBJECT F","OBJECT_ID":"2023-091F","EPOCH":"2026-03-09T22:26:06.799488","MEAN_MOTION":15.22515502,"ECCENTRICITY":0.0012878,"INCLINATION":97.5231,"RA_OF_ASC_NODE":130.3577,"ARG_OF_PERICENTER":100.6008,"MEAN_ANOMALY":259.6679,"EPHEMERIS_TYPE":0,"CLASSIFICATION_TYPE":"U","NORAD_CAT_ID":57171,"ELEMENT_SET_NO":999,"REV_AT_EPOCH":14905,"BSTAR":0.00043192506,"MEAN_MOTION_DOT":9.968e-5,"MEAN_MOTION_DDOT":0}]
